satname,norad_id,inclination_deg,eccentricity,mean_motion_rev_per_day,perigee_km,apogee_km,l1,l2
STARLINK-1008,44714,53.0548,0.0001228,15.06393937,546.3797051375523,548.08057530719,1 44714U 19074B   25299.68419940  .00001216  00000+0  10054-3 0  9991,2 44714  53.0548  68.1887 0001228  87.9934 272.1196 15.06393937328555
STARLINK-1010,44716,53.0435,0.0004972,15.95781467,282.82432038481056,289.45127524375766,1 44716U 19074D   25299.91670139  .00281980  42550-4  68585-3 0  9999,2 44716  53.0435 355.5400 0004972  48.7924 245.8028 15.95781467  5908
STARLINK-1011,44717,53.0472,0.0003404,15.83268767,318.923453464492,323.4843647554144,1 44717U 19074E   25299.91670139  .00236395  00000+0  10451-2 0  9997,2 44717  53.0472  52.2234 0003404 288.4823 219.5970 15.83268767  5922
STARLINK-1012,44718,53.0546,0.0001168,15.0639647,546.4134949257686,548.0312588762126,1 44718U 19074F   25299.72843020  .00000977  00000+0  84482-4 0  9990,2 44718  53.0546  67.9932 0001168  90.6255 269.4868 15.06396470328555
STARLINK-1017,44723,53.0514,0.0002114,15.14481227,521.0951539631178,524.0127661010183,1 44723U 19074L   25299.72917571  .00048380  00000+0  25973-2 0  9997,2 44723  53.0514  64.8636 0002114 187.6126 172.4834 15.14481227328605
STARLINK-1019,44724,53.0541,9.71e-05,15.08540142,539.9882715305703,541.3319019248129,1 44724U 19074M   25299.91670139  .01584428  00000+0  92223-1 0  9995,2 44724  53.0541  67.1460 0000971  74.8346 250.9745 15.08540142  5731
STARLINK-1020,44725,53.0545,0.0001312,15.06417433,546.249530098451,548.0667275402529,1 44725U 19074N   25299.79658793  .00003460  00000+0  25094-3 0  9999,2 44725  53.0545  87.6874 0001312  92.4819 267.6320 15.06417433328289
STARLINK-1031,44736,53.0501,0.0005326,15.46533231,423.252348374338,430.50104896616176,1 44736U 19074Z   25299.91670139  .00091121  00000+0  17914-2 0  9995,2 44736  53.0501  57.7828 0005326 212.9886 327.0801 15.46533231  5895
STARLINK-1036,44741,53.0537,0.000141,15.06394736,546.2512149656186,548.2041678085889,1 44741U 19074AE  25299.82611094  .00001640  00000+0  12897-3 0  9999,2 44741  53.0537  87.5546 0001410  84.8561 275.2588 15.06394736328293
STARLINK-1039,44744,53.0498,0.0006713,15.12336617,524.4394150004673,533.7130394793594,1 44744U 19074AH  25299.77960745  .00035515  00000+0  20319-2 0  9991,2 44744  53.0498 105.9324 0006713 133.9516 226.2031 15.12336617328030
STARLINK-1042,44747,53.0483,0.0003262,15.42858208,435.45526407479065,439.90190216121664,1 44747U 19074AL  25299.53885514  .00021094  00000+0  48144-3 0  9992,2 44747  53.0483  15.0089 0003262  85.9292 274.2086 15.42858208329312
STARLINK-1043,44748,53.0528,0.0001253,15.06395561,546.3574149883461,548.0929107463608,1 44748U 19074AM  25299.73211980 -.00000038  00000+0  16335-4 0  9999,2 44748  53.0528 107.9766 0001253  86.7871 273.3261 15.06395561328004
STARLINK-1046,44751,53.0537,0.0001304,15.06396882,546.3180474775982,548.1241808737741,1 44751U 19074AQ  25299.74686458  .00000136  00000+0  28035-4 0  9998,2 44751  53.0537 107.9103 0001304  88.7056 271.4082 15.06396882328004
STARLINK-1047,44752,53.0716,0.0004015,15.29093146,475.76898079004786,481.2748779103158,1 44752U 19074AR  25299.59606227  .00014116  00000+0  50455-3 0  9991,2 44752  53.0716  50.7981 0004015 146.5510 213.5743 15.29093146328804
STARLINK-1048,44753,53.0535,0.0001148,15.0640232,546.4094182833742,547.9994766797154,1 44753U 19074AS  25299.77266431  .00001945  00000+0  14940-3 0  9996,2 44753  53.0535  67.7935 0001148  87.2109 272.9012 15.06402320328564
STARLINK-1053,44758,53.0421,0.0002272,15.59766017,386.7963534472656,389.87103773134186,1 44758U 19074AX  25299.67277382  .00058078  00000+0  71296-3 0  9993,2 44758  53.0421  28.4059 0002272  16.6591 343.4495 15.59766017329120
STARLINK-1054,44759,53.0369,0.0004678,15.8809671,304.49172973777604,310.7469233568936,1 44759U 19074AY  25299.91670139  .00460508  00000+0  15691-2 0  9999,2 44759  53.0369  52.1132 0004678 311.3478 236.2624 15.88096710  5985
STARLINK-1056,44761,53.037,0.0003264,16.0155486,267.9422863697173,272.2822634963941,1 44761U 19074BA  25299.75432123  .00508909  12645-3  89082-3 0  9999,2 44761  53.0370  39.1080 0003264   6.9173 353.1901 16.01554860328971
STARLINK-1060,44765,53.0544,0.0001964,15.61327867,382.4924054699586,385.14850235785616,1 44765U 19074BE  25299.76996772  .00122781  00000+0  14019-2 0  9994,2 44765  53.0544  74.1660 0001964 349.5679  10.5293 15.61327867328476
STARLINK-1063,44768,53.0532,0.0001322,15.06401262,546.292159524709,548.1232206607692,1 44768U 19074BH  25299.80215588  .00000938  00000+0  81838-4 0  9995,2 44768  53.0532 107.6630 0001322  91.9399 268.1742 15.06401262328022
STARLINK-1067,44771,53.054,0.0001322,15.06397411,546.3039607334013,548.1350249901134,1 44771U 19074BL  25299.72474882 -.00000449  00000+0 -11237-4 0  9999,2 44771  53.0540 108.0116 0001322  93.2952 266.8188 15.06397411328006
STARLINK-1068,44772,53.0537,0.00013,15.06390112,546.3415641476731,548.1421626521569,1 44772U 19074BM  25299.78188619  .00000941  00000+0  82099-4 0  9995,2 44772  53.0537  87.7538 0001300  92.5508 267.5630 15.06390112328280
STARLINK-1112,44925,53.0494,0.0005039,15.54082477,401.40313505222275,408.23900019277335,1 44925U 20001M   25299.12456581  .00108171  00000+0  16232-2 0  9999,2 44925  53.0494 190.3104 0005039 129.0777 231.0681 15.54082477320132
STARLINK-1114,44927,53.0567,0.0001101,15.06404724,546.434600314331,547.9595588786569,1 44927U 20001P   25299.82055858 -.00010544  00000+0 -68992-3 0  9999,2 44927  53.0567 227.5837 0001101  57.4758 302.6337 15.06404724319670
STARLINK-1123,44930,53.0548,0.0001976,15.06384041,545.8920118664291,548.6289289467331,1 44930U 20001S   25299.83532112  .00001287  00000+0  10532-3 0  9996,2 44930  53.0548 227.5150 0001976  90.8633 269.2582 15.06384041319673
STARLINK-1144,44933,53.0429,0.0012571,15.58987088,382.078401252018,399.09632804962257,1 44933U 20001V   25299.84930624  .00121402  00000+0  15111-2 0  9999,2 44933  53.0429 164.0403 0012571  80.4047 279.8385 15.58987088321866
STARLINK-1091,44940,53.0333,0.0003629,15.98009751,277.5249773348014,282.3574104879435,1 44940U 20001AC  25299.91670139  .00428598  87627-4  91924-3 0  9995,2 44940  53.0333 141.0655 0003629 263.9248  49.7506 15.98009751  5906
STARLINK-1094,44941,53.0539,0.0003018,15.06364182,545.2312337986014,549.4114404508891,1 44941U 20001AD  25299.45016207 -.00010477  00000+0 -68602-3 0  9992,2 44941  53.0539 209.2439 0003018  86.0949 274.0385 15.06364182319891
STARLINK-1096,44942,52.9875,0.0007614,15.8834273,301.8389238496484,312.0189422524991,1 44942U 20001AE  25299.91670139  .00267912  00000+0  92148-3 0  9992,2 44942  52.9875 328.6680 0007614  31.6840 329.4795 15.88342730  5953
STARLINK-1122,44949,53.0533,0.0002027,15.06400713,545.8056049870838,548.6131404065754,1 44949U 20001AM  25299.73765272  .00003154  00000+0  23052-3 0  9996,2 44949  53.0533 207.9507 0002027  88.9670 271.1551 15.06400713319934
STARLINK-1080,44961,53.0533,0.0001608,15.06412058,546.0610120458323,548.2881922570841,1 44961U 20001AZ  25299.40405051  .00000211  00000+0  33078-4 0  9991,2 44961  53.0533 189.4506 0001608  91.6835 268.4338 15.06412058320174
STARLINK-1090,44968,53.0518,0.0001825,15.06400841,545.9451047541816,548.4728560370249,1 44968U 20001BG  25299.67314705  .00001356  00000+0  10993-3 0  9993,2 44968  53.0518 188.2451 0001825  89.4443 270.6755 15.06400841320211
STARLINK-1107,44972,53.0076,0.000461,15.66466131,365.91503524385826,372.13591904778787,1 44972U 20001BL  25299.91670139  .00220724  00000+0  20294-2 0  9997,2 44972  53.0076 103.6688 0004610 231.5138 233.9032 15.66466131  5933
STARLINK-1132,45044,53.0544,0.0001214,15.06394178,546.3886621060719,548.0701410683778,1 45044U 20006A   25299.83164551  .00001578  00000+0  12483-3 0  9996,2 45044  53.0544 147.5319 0001214  89.0972 271.0156 15.06394178316560
STARLINK-1131,45047,53.0538,0.0001669,15.06395186,546.0704690574203,548.3821553310299,1 45047U 20006D   25299.80775286  .00001258  00000+0  10335-3 0  9998,2 45047  53.0538 168.1799 0001669  88.4824 271.6356 15.06395186316276
STARLINK-1134,45048,53.0401,0.0012282,15.26667851,477.3514930892361,494.21202312665173,1 45048U 20006E   25297.87285069  .00016521  00000+0  63194-3 0  9999,2 45048  53.0401 155.6330 0012282 116.8822 243.3433 15.26667851316281
STARLINK-1156,45054,53.0522,0.0001549,15.06370809,546.2282752435931,548.3737759439218,1 45054U 20006L   25299.84455101 -.00003571  00000+0 -22112-3 0  9999,2 45054  53.0522 167.4742 0001549  99.5327 260.5837 15.06370809316282
STARLINK-1159,45057,53.054,0.0001686,15.19558408,506.0133667586151,508.33509370544925,1 45057U 20006P   25299.91670139  .00487667  00000+0  21182-1 0  9994,2 45057  53.0540 166.8437 0001686  94.0524  16.0507 15.19558408  5785
STARLINK-1166,45060,53.0545,0.0001582,15.06391321,546.1425636009963,548.3337523009714,1 45060U 20006S   25299.87033773 -.00002108  00000+0 -12267-3 0  9991,2 45060  53.0545 167.3617 0001582  95.4178 264.6991 15.06391321316299
STARLINK-1169,45061,53.0528,0.0001385,15.0638889,546.2864432061151,548.2047741887245,1 45061U 20006T   25299.81136308 -.00000015  00000+0  17914-4 0  9993,2 45061  53.0528 167.6252 0001385  94.2258 265.8889 15.06388890316281
STARLINK-1171,45062,53.0531,6.01e-05,15.28805609,478.96949687130564,479.7937706110815,1 45062U 20006U   25299.84719781  .00011726  00000+0  42508-3 0  9995,2 45062  53.0531 165.8958 0000601 104.5332 255.5733 15.28805609316311
STARLINK-1133,45064,53.0532,0.0001411,15.06393531,546.2542150834606,548.2085540415837,1 45064U 20006W   25299.87587411  .00000215  00000+0  33345-4 0  9994,2 45064  53.0532 147.3308 0001411  93.2859 266.8291 15.06393531316570
STARLINK-1167,45071,53.0528,0.000144,15.06399423,546.2160759137423,548.2105768077336,1 45071U 20006AD  25299.83532425 -.00000637  00000+0 -23895-4 0  9992,2 45071  53.0528 147.5157 0001440  88.5521 271.5633 15.06399423316560
